CCSDS_OMM_VERS = 2.0
CREATION_DATE  = 
ORIGINATOR     = 

OBJECT_NAME    = 2025-284A
OBJECT_ID      = 2025-284A
CENTER_NAME    = EARTH
REF_FRAME      = TEME
TIME_SYSTEM    = UTC
MEAN_ELEMENT_THEORY = SGP/SGP4

EPOCH          = 2025-12-11T22:31:04.526112
MEAN_MOTION    = 15.18943113
ECCENTRICITY   = .00120355
INCLINATION    = 80.4046
RA_OF_ASC_NODE = 130.7808
ARG_OF_PERICENTER = 207.1311
MEAN_ANOMALY   = 152.9289

EPHEMERIS_TYPE = 0
CLASSIFICATION_TYPE = U
NORAD_CAT_ID   = 66913
ELEMENT_SET_NO = 999
REV_AT_EPOCH   = 100
BSTAR          = .68878214E-3
MEAN_MOTION_DOT = .14447E-3
MEAN_MOTION_DDOT = 0

CCSDS_OMM_VERS = 2.0
CREATION_DATE  = 
ORIGINATOR     = 

OBJECT_NAME    = 2025-284B
OBJECT_ID      = 2025-284B
CENTER_NAME    = EARTH
REF_FRAME      = TEME
TIME_SYSTEM    = UTC
MEAN_ELEMENT_THEORY = SGP/SGP4

EPOCH          = 2025-12-12T00:05:19.876992
MEAN_MOTION    = 15.18896903
ECCENTRICITY   = .00083237
INCLINATION    = 80.4055
RA_OF_ASC_NODE = 130.6987
ARG_OF_PERICENTER = 249.3612
MEAN_ANOMALY   = 110.6723

EPHEMERIS_TYPE = 0
CLASSIFICATION_TYPE = U
NORAD_CAT_ID   = 66914
ELEMENT_SET_NO = 999
REV_AT_EPOCH   = 101
BSTAR          = .6703642E-3
MEAN_MOTION_DOT = .14028E-3
MEAN_MOTION_DDOT = 0

CCSDS_OMM_VERS = 2.0
CREATION_DATE  = 
ORIGINATOR     = 

OBJECT_NAME    = HULIANWANG DIGUI-105
OBJECT_ID      = 2025-285A
CENTER_NAME    = EARTH
REF_FRAME      = TEME
TIME_SYSTEM    = UTC
MEAN_ELEMENT_THEORY = SGP/SGP4

EPOCH          = 2025-12-11T23:47:02.279904
MEAN_MOTION    = 14.04578170
ECCENTRICITY   = .00080541
INCLINATION    = 50.0050
RA_OF_ASC_NODE = 120.3225
ARG_OF_PERICENTER = 279.8198
MEAN_ANOMALY   = 80.1797

EPHEMERIS_TYPE = 0
CLASSIFICATION_TYPE = U
NORAD_CAT_ID   = 66915
ELEMENT_SET_NO = 999
REV_AT_EPOCH   = 80
BSTAR          = .19780603E-3
MEAN_MOTION_DOT = .166E-5
MEAN_MOTION_DDOT = 0

CCSDS_OMM_VERS = 2.0
CREATION_DATE  = 
ORIGINATOR     = 

OBJECT_NAME    = HULIANWANG DIGUI-106
OBJECT_ID      = 2025-285B
CENTER_NAME    = EARTH
REF_FRAME      = TEME
TIME_SYSTEM    = UTC
MEAN_ELEMENT_THEORY = SGP/SGP4

EPOCH          = 2025-12-11T23:46:27.165216
MEAN_MOTION    = 14.05514353
ECCENTRICITY   = .00069615
INCLINATION    = 50.0047
RA_OF_ASC_NODE = 120.3226
ARG_OF_PERICENTER = 274.8618
MEAN_ANOMALY   = 85.1492

EPHEMERIS_TYPE = 0
CLASSIFICATION_TYPE = U
NORAD_CAT_ID   = 66916
ELEMENT_SET_NO = 999
REV_AT_EPOCH   = 80
BSTAR          = .1973035E-3
MEAN_MOTION_DOT = .17E-5
MEAN_MOTION_DDOT = 0

CCSDS_OMM_VERS = 2.0
CREATION_DATE  = 
ORIGINATOR     = 

OBJECT_NAME    = HULIANWANG DIGUI-107
OBJECT_ID      = 2025-285C
CENTER_NAME    = EARTH
REF_FRAME      = TEME
TIME_SYSTEM    = UTC
MEAN_ELEMENT_THEORY = SGP/SGP4

EPOCH          = 2025-12-11T23:46:02.954208
MEAN_MOTION    = 14.05580276
ECCENTRICITY   = .00075523
INCLINATION    = 50.0013
RA_OF_ASC_NODE = 120.3174
ARG_OF_PERICENTER = 282.6777
MEAN_ANOMALY   = 77.3283

EPHEMERIS_TYPE = 0
CLASSIFICATION_TYPE = U
NORAD_CAT_ID   = 66917
ELEMENT_SET_NO = 999
REV_AT_EPOCH   = 80
BSTAR          = .1143735E-4
MEAN_MOTION_DOT = -.133E-5
MEAN_MOTION_DDOT = 0

CCSDS_OMM_VERS = 2.0
CREATION_DATE  = 
ORIGINATOR     = 

OBJECT_NAME    = HULIANWANG DIGUI-108
OBJECT_ID      = 2025-285D
CENTER_NAME    = EARTH
REF_FRAME      = TEME
TIME_SYSTEM    = UTC
MEAN_ELEMENT_THEORY = SGP/SGP4

EPOCH          = 2025-12-11T23:45:20.797056
MEAN_MOTION    = 14.05704966
ECCENTRICITY   = .00064647
INCLINATION    = 50.0034
RA_OF_ASC_NODE = 120.3170
ARG_OF_PERICENTER = 277.7470
MEAN_ANOMALY   = 82.2701

EPHEMERIS_TYPE = 0
CLASSIFICATION_TYPE = U
NORAD_CAT_ID   = 66918
ELEMENT_SET_NO = 999
REV_AT_EPOCH   = 80
BSTAR          = .20176622E-3
MEAN_MOTION_DOT = .179E-5
MEAN_MOTION_DDOT = 0

CCSDS_OMM_VERS = 2.0
CREATION_DATE  = 
ORIGINATOR     = 

OBJECT_NAME    = HULIANWANG DIGUI-109
OBJECT_ID      = 2025-285E
CENTER_NAME    = EARTH
REF_FRAME      = TEME
TIME_SYSTEM    = UTC
MEAN_ELEMENT_THEORY = SGP/SGP4

EPOCH          = 2025-12-11T22:02:52.962720
MEAN_MOTION    = 14.05716298
ECCENTRICITY   = .00078676
INCLINATION    = 50.0059
RA_OF_ASC_NODE = 120.6103
ARG_OF_PERICENTER = 288.9901
MEAN_ANOMALY   = 71.0151

EPHEMERIS_TYPE = 0
CLASSIFICATION_TYPE = U
NORAD_CAT_ID   = 66919
ELEMENT_SET_NO = 999
REV_AT_EPOCH   = 79
BSTAR          = .297987E-6
MEAN_MOTION_DOT = -.152E-5
MEAN_MOTION_DDOT = 0

CCSDS_OMM_VERS = 2.0
CREATION_DATE  = 
ORIGINATOR     = 

OBJECT_NAME    = HULIANWANG DIGUI-110
OBJECT_ID      = 2025-285F
CENTER_NAME    = EARTH
REF_FRAME      = TEME
TIME_SYSTEM    = UTC
MEAN_ELEMENT_THEORY = SGP/SGP4

EPOCH          = 2025-12-11T22:02:08.407104
MEAN_MOTION    = 14.05850792
ECCENTRICITY   = .00058216
INCLINATION    = 50.0091
RA_OF_ASC_NODE = 120.6112
ARG_OF_PERICENTER = 285.8161
MEAN_ANOMALY   = 74.2102

EPHEMERIS_TYPE = 0
CLASSIFICATION_TYPE = U
NORAD_CAT_ID   = 66920
ELEMENT_SET_NO = 999
REV_AT_EPOCH   = 79
BSTAR          = .19551379E-3
MEAN_MOTION_DOT = .169E-5
MEAN_MOTION_DDOT = 0

CCSDS_OMM_VERS = 2.0
CREATION_DATE  = 
ORIGINATOR     = 

OBJECT_NAME    = HULIANWANG DIGUI-111
OBJECT_ID      = 2025-285G
CENTER_NAME    = EARTH
REF_FRAME      = TEME
TIME_SYSTEM    = UTC
MEAN_ELEMENT_THEORY = SGP/SGP4

EPOCH          = 2025-12-11T23:44:18.125088
MEAN_MOTION    = 14.05884525
ECCENTRICITY   = .00069743
INCLINATION    = 50.0107
RA_OF_ASC_NODE = 120.3220
ARG_OF_PERICENTER = 292.5707
MEAN_ANOMALY   = 67.4460

EPHEMERIS_TYPE = 0
CLASSIFICATION_TYPE = U
NORAD_CAT_ID   = 66921
ELEMENT_SET_NO = 999
REV_AT_EPOCH   = 80
BSTAR          = .20872477E-3
MEAN_MOTION_DOT = .191E-5
MEAN_MOTION_DDOT = 0

CCSDS_OMM_VERS = 2.0
CREATION_DATE  = 
ORIGINATOR     = 

OBJECT_NAME    = HULIANWANG DIGUI-112
OBJECT_ID      = 2025-285H
CENTER_NAME    = EARTH
REF_FRAME      = TEME
TIME_SYSTEM    = UTC
MEAN_ELEMENT_THEORY = SGP/SGP4

EPOCH          = 2025-12-11T23:43:38.730144
MEAN_MOTION    = 14.05999854
ECCENTRICITY   = .00069438
INCLINATION    = 50.0082
RA_OF_ASC_NODE = 120.3156
ARG_OF_PERICENTER = 298.8580
MEAN_ANOMALY   = 61.1628

EPHEMERIS_TYPE = 0
CLASSIFICATION_TYPE = U
NORAD_CAT_ID   = 66922
ELEMENT_SET_NO = 999
REV_AT_EPOCH   = 80
BSTAR          = .1973181E-5
MEAN_MOTION_DOT = -.149E-5
MEAN_MOTION_DDOT = 0

CCSDS_OMM_VERS = 2.0
CREATION_DATE  = 
ORIGINATOR     = 

OBJECT_NAME    = HULIANWANG DIGUI-113
OBJECT_ID      = 2025-285J
CENTER_NAME    = EARTH
REF_FRAME      = TEME
TIME_SYSTEM    = UTC
MEAN_ELEMENT_THEORY = SGP/SGP4

EPOCH          = 2025-12-11T23:43:18.558336
MEAN_MOTION    = 14.06056022
ECCENTRICITY   = .00053996
INCLINATION    = 50.0079
RA_OF_ASC_NODE = 120.3153
ARG_OF_PERICENTER = 293.7646
MEAN_ANOMALY   = 66.2693

EPHEMERIS_TYPE = 0
CLASSIFICATION_TYPE = U
NORAD_CAT_ID   = 66923
ELEMENT_SET_NO = 999
REV_AT_EPOCH   = 80
BSTAR          = .20025183E-3
MEAN_MOTION_DOT = .178E-5
MEAN_MOTION_DDOT = 0

CCSDS_OMM_VERS = 2.0
CREATION_DATE  = 
ORIGINATOR     = 

OBJECT_NAME    = CZ-8A R/B
OBJECT_ID      = 2025-285K
CENTER_NAME    = EARTH
REF_FRAME      = TEME
TIME_SYSTEM    = UTC
MEAN_ELEMENT_THEORY = SGP/SGP4

EPOCH          = 2025-12-11T18:04:29.351136
MEAN_MOTION    = 14.30501210
ECCENTRICITY   = .01193225
INCLINATION    = 50.0063
RA_OF_ASC_NODE = 120.3543
ARG_OF_PERICENTER = 103.2592
MEAN_ANOMALY   = 258.1664

EPHEMERIS_TYPE = 0
CLASSIFICATION_TYPE = U
NORAD_CAT_ID   = 66924
ELEMENT_SET_NO = 999
REV_AT_EPOCH   = 78
BSTAR          = .96804415E-4
MEAN_MOTION_DOT = .107E-5
MEAN_MOTION_DDOT = 0

