2025-284A               
1 66913U 25284A   25345.93824683  .00014447  00000+0  68878-3 0  9997
2 66913  80.4046 130.7808 0012035 207.1311 152.9289 15.18943113  1005
2025-284B               
1 66914U 25284B   25346.00370228  .00014028  00000+0  67036-3 0  9998
2 66914  80.4055 130.6987 0008323 249.3612 110.6723 15.18896903  1019
HULIANWANG DIGUI-105    
1 66915U 25285A   25345.99099861  .00000166  00000+0  19781-3 0  9990
2 66915  50.0050 120.3225 0008054 279.8198  80.1797 14.04578170   802
HULIANWANG DIGUI-106    
1 66916U 25285B   25345.99059219  .00000170  00000+0  19730-3 0  9993
2 66916  50.0047 120.3226 0006961 274.8618  85.1492 14.05514353   808
HULIANWANG DIGUI-107    
1 66917U 25285C   25345.99031197 -.00000133  00000+0  11437-4 0  9996
2 66917  50.0013 120.3174 0007552 282.6777  77.3283 14.05580276   802
HULIANWANG DIGUI-108    
1 66918U 25285D   25345.98982404  .00000179  00000+0  20177-3 0  9991
2 66918  50.0034 120.3170 0006464 277.7470  82.2701 14.05704966   802
HULIANWANG DIGUI-109    
1 66919U 25285E   25345.91866855 -.00000152  00000+0  29799-6 0  9990
2 66919  50.0059 120.6103 0007867 288.9901  71.0151 14.05716298   794
HULIANWANG DIGUI-110    
1 66920U 25285F   25345.91815286  .00000169  00000+0  19551-3 0  9993
2 66920  50.0091 120.6112 0005821 285.8161  74.2102 14.05850792   793
HULIANWANG DIGUI-111    
1 66921U 25285G   25345.98909867  .00000191  00000+0  20872-3 0  9993
2 66921  50.0107 120.3220 0006974 292.5707  67.4460 14.05884525   804
HULIANWANG DIGUI-112    
1 66922U 25285H   25345.98864271 -.00000149  00000+0  19732-5 0  9992
2 66922  50.0082 120.3156 0006943 298.8580  61.1628 14.05999854   808
HULIANWANG DIGUI-113    
1 66923U 25285J   25345.98840924  .00000178  00000+0  20025-3 0  9998
2 66923  50.0079 120.3153 0005399 293.7646  66.2693 14.06056022   803
CZ-8A R/B               
1 66924U 25285K   25345.75311749  .00000107  00000+0  96804-4 0  9993
2 66924  50.0063 120.3543 0119322 103.2592 258.1664 14.30501210   785
